CCSDS_OMM_VERS = 2.0
CREATION_DATE  = 
ORIGINATOR     = 

OBJECT_NAME    = STARLINK-36673
OBJECT_ID      = 2026-022N
CENTER_NAME    = EARTH
REF_FRAME      = TEME
TIME_SYSTEM    = UTC
MEAN_ELEMENT_THEORY = SGP/SGP4

EPOCH          = 2026-02-22T05:04:21.459072
MEAN_MOTION    = 15.75231581
ECCENTRICITY   = .0001328
INCLINATION    = 97.2848
RA_OF_ASC_NODE = 86.4438
ARG_OF_PERICENTER = 96.4077
MEAN_ANOMALY   = 263.7340

EPHEMERIS_TYPE = 0
CLASSIFICATION_TYPE = U
NORAD_CAT_ID   = 67660
ELEMENT_SET_NO = 999
REV_AT_EPOCH   = 311
BSTAR          = .12495E-2
MEAN_MOTION_DOT = .1908E-2
MEAN_MOTION_DDOT = 0

CCSDS_OMM_VERS = 2.0
CREATION_DATE  = 
ORIGINATOR     = 

OBJECT_NAME    = STARLINK-36674
OBJECT_ID      = 2026-022P
CENTER_NAME    = EARTH
REF_FRAME      = TEME
TIME_SYSTEM    = UTC
MEAN_ELEMENT_THEORY = SGP/SGP4

EPOCH          = 2026-02-22T05:02:19.419072
MEAN_MOTION    = 15.75252299
ECCENTRICITY   = .0001387
INCLINATION    = 97.2848
RA_OF_ASC_NODE = 86.4463
ARG_OF_PERICENTER = 91.2979
MEAN_ANOMALY   = 268.8446

EPHEMERIS_TYPE = 0
CLASSIFICATION_TYPE = U
NORAD_CAT_ID   = 67661
ELEMENT_SET_NO = 999
REV_AT_EPOCH   = 311
BSTAR          = .14698E-2
MEAN_MOTION_DOT = .225597E-2
MEAN_MOTION_DDOT = 0

CCSDS_OMM_VERS = 2.0
CREATION_DATE  = 
ORIGINATOR     = 

OBJECT_NAME    = STARLINK-36700
OBJECT_ID      = 2026-022Q
CENTER_NAME    = EARTH
REF_FRAME      = TEME
TIME_SYSTEM    = UTC
MEAN_ELEMENT_THEORY = SGP/SGP4

EPOCH          = 2026-02-22T04:59:16.562976
MEAN_MOTION    = 15.75235486
ECCENTRICITY   = .0001367
INCLINATION    = 97.2851
RA_OF_ASC_NODE = 86.4489
ARG_OF_PERICENTER = 80.0332
MEAN_ANOMALY   = 280.1087

EPHEMERIS_TYPE = 0
CLASSIFICATION_TYPE = U
NORAD_CAT_ID   = 67662
ELEMENT_SET_NO = 999
REV_AT_EPOCH   = 311
BSTAR          = .12827E-2
MEAN_MOTION_DOT = .196041E-2
MEAN_MOTION_DDOT = 0

CCSDS_OMM_VERS = 2.0
CREATION_DATE  = 
ORIGINATOR     = 

OBJECT_NAME    = STARLINK-36675
OBJECT_ID      = 2026-022R
CENTER_NAME    = EARTH
REF_FRAME      = TEME
TIME_SYSTEM    = UTC
MEAN_ELEMENT_THEORY = SGP/SGP4

EPOCH          = 2026-02-22T05:01:18.438816
MEAN_MOTION    = 15.75251040
ECCENTRICITY   = .0001334
INCLINATION    = 97.2848
RA_OF_ASC_NODE = 86.4471
ARG_OF_PERICENTER = 78.9676
MEAN_ANOMALY   = 281.1740

EPHEMERIS_TYPE = 0
CLASSIFICATION_TYPE = U
NORAD_CAT_ID   = 67663
ELEMENT_SET_NO = 999
REV_AT_EPOCH   = 311
BSTAR          = .14708E-2
MEAN_MOTION_DOT = .225746E-2
MEAN_MOTION_DDOT = 0

CCSDS_OMM_VERS = 2.0
CREATION_DATE  = 
ORIGINATOR     = 

OBJECT_NAME    = STARLINK-36404
OBJECT_ID      = 2026-022S
CENTER_NAME    = EARTH
REF_FRAME      = TEME
TIME_SYSTEM    = UTC
MEAN_ELEMENT_THEORY = SGP/SGP4

EPOCH          = 2026-02-22T04:56:43.984896
MEAN_MOTION    = 15.75247639
ECCENTRICITY   = .0001208
INCLINATION    = 97.2853
RA_OF_ASC_NODE = 86.4503
ARG_OF_PERICENTER = 102.4948
MEAN_ANOMALY   = 257.6452

EPHEMERIS_TYPE = 0
CLASSIFICATION_TYPE = U
NORAD_CAT_ID   = 67664
ELEMENT_SET_NO = 999
REV_AT_EPOCH   = 311
BSTAR          = .1382E-2
MEAN_MOTION_DOT = .211728E-2
MEAN_MOTION_DDOT = 0

CCSDS_OMM_VERS = 2.0
CREATION_DATE  = 
ORIGINATOR     = 

OBJECT_NAME    = STARLINK-36399
OBJECT_ID      = 2026-022T
CENTER_NAME    = EARTH
REF_FRAME      = TEME
TIME_SYSTEM    = UTC
MEAN_ELEMENT_THEORY = SGP/SGP4

EPOCH          = 2026-02-22T04:55:43.154112
MEAN_MOTION    = 15.75235579
ECCENTRICITY   = .0001488
INCLINATION    = 97.2853
RA_OF_ASC_NODE = 86.4516
ARG_OF_PERICENTER = 110.5747
MEAN_ANOMALY   = 249.5678

EPHEMERIS_TYPE = 0
CLASSIFICATION_TYPE = U
NORAD_CAT_ID   = 67665
ELEMENT_SET_NO = 999
REV_AT_EPOCH   = 311
BSTAR          = .12359E-2
MEAN_MOTION_DOT = .188711E-2
MEAN_MOTION_DDOT = 0

CCSDS_OMM_VERS = 2.0
CREATION_DATE  = 
ORIGINATOR     = 

OBJECT_NAME    = STARLINK-36365
OBJECT_ID      = 2026-022U
CENTER_NAME    = EARTH
REF_FRAME      = TEME
TIME_SYSTEM    = UTC
MEAN_ELEMENT_THEORY = SGP/SGP4

EPOCH          = 2026-02-22T04:53:40.943040
MEAN_MOTION    = 15.75268578
ECCENTRICITY   = .0001463
INCLINATION    = 97.2852
RA_OF_ASC_NODE = 86.4538
ARG_OF_PERICENTER = 100.9579
MEAN_ANOMALY   = 259.1851

EPHEMERIS_TYPE = 0
CLASSIFICATION_TYPE = U
NORAD_CAT_ID   = 67666
ELEMENT_SET_NO = 999
REV_AT_EPOCH   = 311
BSTAR          = .16372E-2
MEAN_MOTION_DOT = .252283E-2
MEAN_MOTION_DDOT = 0

CCSDS_OMM_VERS = 2.0
CREATION_DATE  = 
ORIGINATOR     = 

OBJECT_NAME    = STARLINK-36622
OBJECT_ID      = 2026-022V
CENTER_NAME    = EARTH
REF_FRAME      = TEME
TIME_SYSTEM    = UTC
MEAN_ELEMENT_THEORY = SGP/SGP4

EPOCH          = 2026-02-22T04:51:08.752032
MEAN_MOTION    = 15.75230788
ECCENTRICITY   = .0001435
INCLINATION    = 97.2852
RA_OF_ASC_NODE = 86.4558
ARG_OF_PERICENTER = 98.8611
MEAN_ANOMALY   = 261.2817

EPHEMERIS_TYPE = 0
CLASSIFICATION_TYPE = U
NORAD_CAT_ID   = 67667
ELEMENT_SET_NO = 999
REV_AT_EPOCH   = 311
BSTAR          = .1203E-2
MEAN_MOTION_DOT = .183545E-2
MEAN_MOTION_DDOT = 0

CCSDS_OMM_VERS = 2.0
CREATION_DATE  = 
ORIGINATOR     = 

OBJECT_NAME    = STARLINK-36625
OBJECT_ID      = 2026-022W
CENTER_NAME    = EARTH
REF_FRAME      = TEME
TIME_SYSTEM    = UTC
MEAN_ELEMENT_THEORY = SGP/SGP4

EPOCH          = 2026-02-22T06:20:35.508768
MEAN_MOTION    = 15.75251302
ECCENTRICITY   = .0001709
INCLINATION    = 97.2850
RA_OF_ASC_NODE = 86.5242
ARG_OF_PERICENTER = 83.6079
MEAN_ANOMALY   = 276.5381

EPHEMERIS_TYPE = 0
CLASSIFICATION_TYPE = U
NORAD_CAT_ID   = 67668
ELEMENT_SET_NO = 999
REV_AT_EPOCH   = 312
BSTAR          = .14638E-2
MEAN_MOTION_DOT = .224637E-2
MEAN_MOTION_DDOT = 0

CCSDS_OMM_VERS = 2.0
CREATION_DATE  = 
ORIGINATOR     = 

OBJECT_NAME    = STARLINK-36639
OBJECT_ID      = 2026-022X
CENTER_NAME    = EARTH
REF_FRAME      = TEME
TIME_SYSTEM    = UTC
MEAN_ELEMENT_THEORY = SGP/SGP4

EPOCH          = 2026-02-22T06:18:03.158784
MEAN_MOTION    = 15.75202095
ECCENTRICITY   = .00018
INCLINATION    = 97.2853
RA_OF_ASC_NODE = 86.5270
ARG_OF_PERICENTER = 111.3506
MEAN_ANOMALY   = 248.7952

EPHEMERIS_TYPE = 0
CLASSIFICATION_TYPE = U
NORAD_CAT_ID   = 67669
ELEMENT_SET_NO = 999
REV_AT_EPOCH   = 312
BSTAR          = .73574E-3
MEAN_MOTION_DOT = .11111E-2
MEAN_MOTION_DDOT = 0

CCSDS_OMM_VERS = 2.0
CREATION_DATE  = 
ORIGINATOR     = 

OBJECT_NAME    = STARLINK-36596
OBJECT_ID      = 2026-022Y
CENTER_NAME    = EARTH
REF_FRAME      = TEME
TIME_SYSTEM    = UTC
MEAN_ELEMENT_THEORY = SGP/SGP4

EPOCH          = 2026-02-22T06:15:30.518496
MEAN_MOTION    = 15.75247005
ECCENTRICITY   = .000147
INCLINATION    = 97.2851
RA_OF_ASC_NODE = 86.5286
ARG_OF_PERICENTER = 98.3464
MEAN_ANOMALY   = 261.7968

EPHEMERIS_TYPE = 0
CLASSIFICATION_TYPE = U
NORAD_CAT_ID   = 67670
ELEMENT_SET_NO = 999
REV_AT_EPOCH   = 312
BSTAR          = .13467E-2
MEAN_MOTION_DOT = .206167E-2
MEAN_MOTION_DDOT = 0

CCSDS_OMM_VERS = 2.0
CREATION_DATE  = 
ORIGINATOR     = 

OBJECT_NAME    = STARLINK-36297
OBJECT_ID      = 2026-022Z
CENTER_NAME    = EARTH
REF_FRAME      = TEME
TIME_SYSTEM    = UTC
MEAN_ELEMENT_THEORY = SGP/SGP4

EPOCH          = 2026-02-22T06:12:27.780768
MEAN_MOTION    = 15.75208146
ECCENTRICITY   = .0001313
INCLINATION    = 97.2853
RA_OF_ASC_NODE = 86.5318
ARG_OF_PERICENTER = 86.3204
MEAN_ANOMALY   = 273.8212

EPHEMERIS_TYPE = 0
CLASSIFICATION_TYPE = U
NORAD_CAT_ID   = 67671
ELEMENT_SET_NO = 999
REV_AT_EPOCH   = 312
BSTAR          = .883E-3
MEAN_MOTION_DOT = .133762E-2
MEAN_MOTION_DDOT = 0

