STARLINK-36673          
1 67660U 26022N   26053.21135948  .00190800  00000+0  12495-2 0  9996
2 67660  97.2848  86.4438 0001328  96.4077 263.7340 15.75231581  3113
STARLINK-36674          
1 67661U 26022P   26053.20994698  .00225597  00000+0  14698-2 0  9990
2 67661  97.2848  86.4463 0001387  91.2979 268.8446 15.75252299  3113
STARLINK-36700          
1 67662U 26022Q   26053.20783059  .00196041  00000+0  12827-2 0  9991
2 67662  97.2851  86.4489 0001367  80.0332 280.1087 15.75235486  3110
STARLINK-36675          
1 67663U 26022R   26053.20924119  .00225746  00000+0  14708-2 0  9991
2 67663  97.2848  86.4471 0001334  78.9676 281.1740 15.75251040  3110
STARLINK-36404          
1 67664U 26022S   26053.20606464  .00211728  00000+0  13820-2 0  9991
2 67664  97.2853  86.4503 0001208 102.4948 257.6452 15.75247639  3115
STARLINK-36399          
1 67665U 26022T   26053.20536058  .00188711  00000+0  12359-2 0  9994
2 67665  97.2853  86.4516 0001488 110.5747 249.5678 15.75235579  3117
STARLINK-36365          
1 67666U 26022U   26053.20394610  .00252283  00000+0  16372-2 0  9996
2 67666  97.2852  86.4538 0001463 100.9579 259.1851 15.75268578  3115
STARLINK-36622          
1 67667U 26022V   26053.20218463  .00183545  00000+0  12030-2 0  9999
2 67667  97.2852  86.4558 0001435  98.8611 261.2817 15.75230788  3117
STARLINK-36625          
1 67668U 26022W   26053.26429987  .00224637  00000+0  14638-2 0  9995
2 67668  97.2850  86.5242 0001709  83.6079 276.5381 15.75251302  3122
STARLINK-36639          
1 67669U 26022X   26053.26253656  .00111110  00000+0  73574-3 0  9990
2 67669  97.2853  86.5270 0001800 111.3506 248.7952 15.75202095  3123
STARLINK-36596          
1 67670U 26022Y   26053.26076989  .00206167  00000+0  13467-2 0  9995
2 67670  97.2851  86.5286 0001470  98.3464 261.7968 15.75247005  3122
STARLINK-36297          
1 67671U 26022Z   26053.25865487  .00133762  00000+0  88300-3 0  9993
2 67671  97.2853  86.5318 0001313  86.3204 273.8212 15.75208146  3125
